{
    "links": {
        "self": "http://www.neowsapp.com/rest/v1/neo/3619159?api_key=iIulBulltgU6a56xZRHN4H3l9WmuAYTsLGpBGhQ2"
    },
    "id": "3619159",
    "neo_reference_id": "3619159",
    "name": "(2012 XC)",
    "designation": "2012 XC",
    "nasa_jpl_url": "http://ssd.jpl.nasa.gov/sbdb.cgi?sstr=3619159",
    "absolute_magnitude_h": 25.4,
    "estimated_diameter": {
        "kilometers": {
            "estimated_diameter_min": 0.022108281,
            "estimated_diameter_max": 0.0494356193
        },
        "meters": {
            "estimated_diameter_min": 22.1082810359,
            "estimated_diameter_max": 49.435619262
        },
        "miles": {
            "estimated_diameter_min": 0.0137374447,
            "estimated_diameter_max": 0.0307178602
        },
        "feet": {
            "estimated_diameter_min": 72.5337327539,
            "estimated_diameter_max": 162.1903570994
        }
    },
    "is_potentially_hazardous_asteroid": false,
    "close_approach_data": [
        {
            "close_approach_date": "2012-11-25",
            "close_approach_date_full": "2012-Nov-25 22:01",
            "epoch_date_close_approach": 1353880860000,
            "relative_velocity": {
                "kilometers_per_second": "14.5298117044",
                "kilometers_per_hour": "52307.3221357986",
                "miles_per_hour": "32501.7358015466"
            },
            "miss_distance": {
                "astronomical": "0.0150063049",
                "lunar": "5.8374526061",
                "kilometers": "2244911.249610563",
                "miles": "1394923.1670612494"
            },
            "orbiting_body": "Earth"
        },
        {
            "close_approach_date": "2015-08-25",
            "close_approach_date_full": "2015-Aug-25 10:38",
            "epoch_date_close_approach": 1440499080000,
            "relative_velocity": {
                "kilometers_per_second": "13.7220244727",
                "kilometers_per_hour": "49399.2881017405",
                "miles_per_hour": "30694.7965429954"
            },
            "miss_distance": {
                "astronomical": "0.0907502624",
                "lunar": "35.3018520736",
                "kilometers": "13576045.956981088",
                "miles": "8435763.7861034944"
            },
            "orbiting_body": "Mars"
        }
    ],
    "orbital_data": {
        "orbit_id": "8",
        "orbit_determination_date": "2017-04-06 08:47:51",
        "first_observation_date": "2012-12-02",
        "last_observation_date": "2012-12-12",
        "data_arc_in_days": 10,
        "observations_used": 28,
        "orbit_uncertainty": "8",
        "minimum_orbit_intersection": ".00608631",
        "jupiter_tisserand_invariant": "3.776",
        "epoch_osculation": "2456265.5",
        "eccentricity": ".567199436173209",
        "semi_major_axis": "1.863102429313991",
        "inclination": "4.159786847848344",
        "ascending_node_longitude": "67.4580132522678",
        "orbital_period": "928.8669810496679",
        "perihelion_distance": ".8063517818741595",
        "perihelion_argument": "294.6336056579776",
        "aphelion_distance": "2.919853076753823",
        "perihelion_time": "2456216.035760969245",
        "mean_anomaly": "19.17080315520402",
        "mean_motion": ".3875689494239329",
        "equinox": "J2000",
        "orbit_class": {
            "orbit_class_type": "APO",
            "orbit_class_description": "Near-Earth asteroid orbits which cross the Earth’s orbit similar to that of 1862 Apollo",
            "orbit_class_range": "a (semi-major axis) > 1.0 AU; q (perihelion) < 1.017 AU"
        }
    },
    "is_sentry_object": false
}